{
  "type": "FeatureCollection",
  "features": [
    {
      "type": "Feature",
      "properties": {
        "norad_id": 38487,
        "name": "COSMOS 2251 DEB",
        "group": "cosmos-2251-debris",
        "lat": 49.646787478766875,
        "lon": -179.68244999576515,
        "alt_km": 501.3691499301185,
        "timestamp": "2025-12-19T06:59:44.304971+00:00",
        "meta_object_name": "COSMOS 2251 DEB",
        "meta_object_id": "1993-036BTX",
        "meta_epoch": "2025-12-18T08:17:15.140832",
        "meta_mean_motion": 15.17739234,
        "meta_eccentricity": 0.00209744,
        "meta_inclination": 73.9753,
        "meta_ra_of_asc_node": 22.0718,
        "meta_arg_of_pericenter": 194.1031,
        "meta_mean_anomaly": 165.9582,
        "meta_ephemeris_type": 0,
        "meta_classification_type": "U",
        "meta_norad_cat_id": 38487,
        "meta_element_set_no": 999,
        "meta_rev_at_epoch": 66885,
        "meta_bstar": 0.0016984027,
        "meta_mean_motion_dot": 0.00034604,
        "meta_mean_motion_ddot": 0,
        "tle_line1": "1 38487U 93036BTX 25352.34531413  .00034604  00000+0  16984-2 0  9998",
        "tle_line2": "2 38487  73.9753  22.0718 0020974 194.1031 165.9582 15.17739234668858"
      },
      "geometry": {
        "type": "Point",
        "coordinates": [
          -179.68244999576515,
          49.646787478766875
        ]
      }
    },
    {
      "type": "Feature",
      "properties": {
        "norad_id": 39109,
        "name": "COSMOS 2251 DEB",
        "group": "cosmos-2251-debris",
        "lat": 24.551412973696618,
        "lon": -140.12271444568674,
        "alt_km": 644.1456446974917,
        "timestamp": "2025-12-19T06:59:44.304981+00:00",
        "meta_object_name": "COSMOS 2251 DEB",
        "meta_object_id": "1993-036BTY",
        "meta_epoch": "2025-12-16T09:28:20.054784",
        "meta_mean_motion": 14.70744531,
        "meta_eccentricity": 0.00594106,
        "meta_inclination": 74.0429,
        "meta_ra_of_asc_node": 217.9855,
        "meta_arg_of_pericenter": 320.6122,
        "meta_mean_anomaly": 213.0839,
        "meta_ephemeris_type": 0,
        "meta_classification_type": "U",
        "meta_norad_cat_id": 39109,
        "meta_element_set_no": 999,
        "meta_rev_at_epoch": 65227,
        "meta_bstar": 0.00033652687,
        "meta_mean_motion_dot": 2.076e-05,
        "meta_mean_motion_ddot": 0,
        "tle_line1": "1 39109U 93036BTY 25350.39467656  .00002076  00000+0  33653-3 0  9991",
        "tle_line2": "2 39109  74.0429 217.9855 0059410 320.6122 213.0839 14.70744531652276"
      },
      "geometry": {
        "type": "Point",
        "coordinates": [
          -140.12271444568674,
          24.551412973696618
        ]
      }
    },
    {
      "type": "Feature",
      "properties": {
        "norad_id": 39110,
        "name": "COSMOS 2251 DEB",
        "group": "cosmos-2251-debris",
        "lat": -58.733908887658544,
        "lon": -103.02043633150056,
        "alt_km": 605.5609662966644,
        "timestamp": "2025-12-19T06:59:44.304993+00:00",
        "meta_object_name": "COSMOS 2251 DEB",
        "meta_object_id": "1993-036BTZ",
        "meta_epoch": "2025-12-17T22:04:59.920608",
        "meta_mean_motion": 14.72312711,
        "meta_eccentricity": 0.00972569,
        "meta_inclination": 73.9594,
        "meta_ra_of_asc_node": 51.3772,
        "meta_arg_of_pericenter": 282.7235,
        "meta_mean_anomaly": 255.0933,
        "meta_ephemeris_type": 0,
        "meta_classification_type": "U",
        "meta_norad_cat_id": 39110,
        "meta_element_set_no": 999,
        "meta_rev_at_epoch": 62560,
        "meta_bstar": 0.00028872963,
        "meta_mean_motion_dot": 1.929e-05,
        "meta_mean_motion_ddot": 0,
        "tle_line1": "1 39110U 93036BTZ 25351.92013797  .00001929  00000+0  28873-3 0  9990",
        "tle_line2": "2 39110  73.9594  51.3772 0097256 282.7235 255.0933 14.72312711625601"
      },
      "geometry": {
        "type": "Point",
        "coordinates": [
          -103.02043633150056,
          -58.733908887658544
        ]
      }
    },
    {
      "type": "Feature",
      "properties": {
        "norad_id": 39111,
        "name": "COSMOS 2251 DEB",
        "group": "cosmos-2251-debris",
        "lat": 73.40147803402121,
        "lon": 133.298306347171,
        "alt_km": 513.2565478827983,
        "timestamp": "2025-12-19T06:59:44.305005+00:00",
        "meta_object_name": "COSMOS 2251 DEB",
        "meta_object_id": "1993-036BUA",
        "meta_epoch": "2025-12-01T22:58:55.551360",
        "meta_mean_motion": 15.11912111,
        "meta_eccentricity": 0.00109111,
        "meta_inclination": 74.0059,
        "meta_ra_of_asc_node": 63.5328,
        "meta_arg_of_pericenter": 39.1207,
        "meta_mean_anomaly": 321.0773,
        "meta_ephemeris_type": 0,
        "meta_classification_type": "U",
        "meta_norad_cat_id": 39111,
        "meta_element_set_no": 999,
        "meta_rev_at_epoch": 8982,
        "meta_bstar": 0.0056424119,
        "meta_mean_motion_dot": 0.00098096,
        "meta_mean_motion_ddot": 0,
        "tle_line1": "1 39111U 93036BUA 25335.95758740  .00098096  00000+0  56424-2 0  9993",
        "tle_line2": "2 39111  74.0059  63.5328 0010911  39.1207 321.0773 15.11912111 89826"
      },
      "geometry": {
        "type": "Point",
        "coordinates": [
          133.298306347171,
          73.40147803402121
        ]
      }
    },
    {
      "type": "Feature",
      "properties": {
        "norad_id": 39546,
        "name": "COSMOS 2251 DEB",
        "group": "cosmos-2251-debris",
        "lat": 34.70770865154748,
        "lon": 135.07598574397792,
        "alt_km": 600.8163044489111,
        "timestamp": "2025-12-19T06:59:44.305015+00:00",
        "meta_object_name": "COSMOS 2251 DEB",
        "meta_object_id": "1993-036BUC",
        "meta_epoch": "2025-12-16T03:12:27.285696",
        "meta_mean_motion": 14.92150087,
        "meta_eccentricity": 0.00441533,
        "meta_inclination": 73.9967,
        "meta_ra_of_asc_node": 129.9626,
        "meta_arg_of_pericenter": 289.5542,
        "meta_mean_anomaly": 70.0875,
        "meta_ephemeris_type": 0,
        "meta_classification_type": "U",
        "meta_norad_cat_id": 39546,
        "meta_element_set_no": 999,
        "meta_rev_at_epoch": 64487,
        "meta_bstar": 0.001062699,
        "meta_mean_motion_dot": 0.00010998,
        "meta_mean_motion_ddot": 0,
        "tle_line1": "1 39546U 93036BUC 25350.13364914  .00010998  00000+0  10627-2 0  9998",
        "tle_line2": "2 39546  73.9967 129.9626 0044153 289.5542  70.0875 14.92150087644870"
      },
      "geometry": {
        "type": "Point",
        "coordinates": [
          135.07598574397792,
          34.70770865154748
        ]
      }
    },
    {
      "type": "Feature",
      "properties": {
        "norad_id": 39547,
        "name": "COSMOS 2251 DEB",
        "group": "cosmos-2251-debris",
        "lat": -61.57876065508341,
        "lon": -27.0496719253868,
        "alt_km": 560.9047759004316,
        "timestamp": "2025-12-19T06:59:44.305025+00:00",
        "meta_object_name": "COSMOS 2251 DEB",
        "meta_object_id": "1993-036BUD",
        "meta_epoch": "2025-12-16T19:23:25.702368",
        "meta_mean_motion": 15.03569393,
        "meta_eccentricity": 0.00056026,
        "meta_inclination": 74.0017,
        "meta_ra_of_asc_node": 10.0509,
        "meta_arg_of_pericenter": 8.7328,
        "meta_mean_anomaly": 167.2284,
        "meta_ephemeris_type": 0,
        "meta_classification_type": "U",
        "meta_norad_cat_id": 39547,
        "meta_element_set_no": 999,
        "meta_rev_at_epoch": 64086,
        "meta_bstar": 0.0020053812,
        "meta_mean_motion_dot": 0.00027477,
        "meta_mean_motion_ddot": 0,
        "tle_line1": "1 39547U 93036BUD 25350.80793637  .00027477  00000+0  20054-2 0  9996",
        "tle_line2": "2 39547  74.0017  10.0509 0005602   8.7328 167.2284 15.03569393640863"
      },
      "geometry": {
        "type": "Point",
        "coordinates": [
          -27.0496719253868,
          -61.57876065508341
        ]
      }
    },
    {
      "type": "Feature",
      "properties": {
        "norad_id": 39553,
        "name": "COSMOS 2251 DEB",
        "group": "cosmos-2251-debris",
        "lat": -2.515341801666465,
        "lon": 139.3981135318664,
        "alt_km": 892.1952182264804,
        "timestamp": "2025-12-19T06:59:44.305035+00:00",
        "meta_object_name": "COSMOS 2251 DEB",
        "meta_object_id": "1993-036BUK",
        "meta_epoch": "2025-12-07T06:00:50.455872",
        "meta_mean_motion": 13.99876591,
        "meta_eccentricity": 0.02014092,
        "meta_inclination": 74.0304,
        "meta_ra_of_asc_node": 339.5232,
        "meta_arg_of_pericenter": 116.8065,
        "meta_mean_anomaly": 245.3825,
        "meta_ephemeris_type": 0,
        "meta_classification_type": "U",
        "meta_norad_cat_id": 39553,
        "meta_element_set_no": 999,
        "meta_rev_at_epoch": 75540,
        "meta_bstar": 0.00088887208,
        "meta_mean_motion_dot": 1.532e-05,
        "meta_mean_motion_ddot": 0,
        "tle_line1": "1 39553U 93036BUK 25341.25058398  .00001532  00000+0  88887-3 0  9993",
        "tle_line2": "2 39553  74.0304 339.5232 0201409 116.8065 245.3825 13.99876591755403"
      },
      "geometry": {
        "type": "Point",
        "coordinates": [
          139.3981135318664,
          -2.515341801666465
        ]
      }
    }
  ]
}